CCSDS_OMM_VERS = 2.0
CREATION_DATE  = 
ORIGINATOR     = 

OBJECT_NAME    = ALOS (DAICHI)
OBJECT_ID      = 2006-002A
CENTER_NAME    = EARTH
REF_FRAME      = TEME
TIME_SYSTEM    = UTC
MEAN_ELEMENT_THEORY = SGP/SGP4

EPOCH          = 2026-02-17T11:42:29.134944
MEAN_MOTION    = 14.69740873
ECCENTRICITY   = .00017642
INCLINATION    = 98.1186
RA_OF_ASC_NODE = 4.5503
ARG_OF_PERICENTER = 57.4401
MEAN_ANOMALY   = 302.6975

EPHEMERIS_TYPE = 0
CLASSIFICATION_TYPE = U
NORAD_CAT_ID   = 28931
ELEMENT_SET_NO = 999
REV_AT_EPOCH   = 7051
BSTAR          = .25326392E-3
MEAN_MOTION_DOT = .146E-4
MEAN_MOTION_DDOT = 0

CCSDS_OMM_VERS = 2.0
CREATION_DATE  = 
ORIGINATOR     = 

OBJECT_NAME    = H-2A R/B
OBJECT_ID      = 2006-002B
CENTER_NAME    = EARTH
REF_FRAME      = TEME
TIME_SYSTEM    = UTC
MEAN_ELEMENT_THEORY = SGP/SGP4

EPOCH          = 2026-02-17T08:21:33.044832
MEAN_MOTION    = 15.15986519
ECCENTRICITY   = .00522757
INCLINATION    = 98.2372
RA_OF_ASC_NODE = 193.6357
ARG_OF_PERICENTER = 311.2531
MEAN_ANOMALY   = 48.4201

EPHEMERIS_TYPE = 0
CLASSIFICATION_TYPE = U
NORAD_CAT_ID   = 28932
ELEMENT_SET_NO = 999
REV_AT_EPOCH   = 9135
BSTAR          = .49487762E-3
MEAN_MOTION_DOT = .976E-4
MEAN_MOTION_DDOT = 0

CCSDS_OMM_VERS = 2.0
CREATION_DATE  = 
ORIGINATOR     = 

OBJECT_NAME    = RESURS-DK 1
OBJECT_ID      = 2006-021A
CENTER_NAME    = EARTH
REF_FRAME      = TEME
TIME_SYSTEM    = UTC
MEAN_ELEMENT_THEORY = SGP/SGP4

EPOCH          = 2026-02-17T02:27:10.797984
MEAN_MOTION    = 15.12622011
ECCENTRICITY   = .00036155
INCLINATION    = 69.9331
RA_OF_ASC_NODE = 290.2762
ARG_OF_PERICENTER = 190.6791
MEAN_ANOMALY   = 169.4299

EPHEMERIS_TYPE = 0
CLASSIFICATION_TYPE = U
NORAD_CAT_ID   = 29228
ELEMENT_SET_NO = 999
REV_AT_EPOCH   = 8441
BSTAR          = .16075283E-3
MEAN_MOTION_DOT = .2708E-4
MEAN_MOTION_DDOT = 0

CCSDS_OMM_VERS = 2.0
CREATION_DATE  = 
ORIGINATOR     = 

OBJECT_NAME    = CZ-4B R/B
OBJECT_ID      = 2006-046C
CENTER_NAME    = EARTH
REF_FRAME      = TEME
TIME_SYSTEM    = UTC
MEAN_ELEMENT_THEORY = SGP/SGP4

EPOCH          = 2026-02-17T13:17:58.312032
MEAN_MOTION    = 15.16681051
ECCENTRICITY   = .00327852
INCLINATION    = 97.5631
RA_OF_ASC_NODE = 93.5158
ARG_OF_PERICENTER = 340.0590
MEAN_ANOMALY   = 19.9359

EPHEMERIS_TYPE = 0
CLASSIFICATION_TYPE = U
NORAD_CAT_ID   = 29507
ELEMENT_SET_NO = 999
REV_AT_EPOCH   = 5699
BSTAR          = .22309508E-3
MEAN_MOTION_DOT = .4357E-4
MEAN_MOTION_DDOT = 0

CCSDS_OMM_VERS = 2.0
CREATION_DATE  = 
ORIGINATOR     = 

OBJECT_NAME    = CZ-2C R/B
OBJECT_ID      = 2007-010B
CENTER_NAME    = EARTH
REF_FRAME      = TEME
TIME_SYSTEM    = UTC
MEAN_ELEMENT_THEORY = SGP/SGP4

EPOCH          = 2026-02-17T07:05:16.176768
MEAN_MOTION    = 14.20238834
ECCENTRICITY   = .0058759
INCLINATION    = 98.3971
RA_OF_ASC_NODE = 162.5976
ARG_OF_PERICENTER = 354.7088
MEAN_ANOMALY   = 5.3462

EPHEMERIS_TYPE = 0
CLASSIFICATION_TYPE = U
NORAD_CAT_ID   = 31114
ELEMENT_SET_NO = 999
REV_AT_EPOCH   = 97682
BSTAR          = .70999E-4
MEAN_MOTION_DOT = .113E-5
MEAN_MOTION_DDOT = 0

CCSDS_OMM_VERS = 2.0
CREATION_DATE  = 
ORIGINATOR     = 

OBJECT_NAME    = COSMO-SKYMED 1
OBJECT_ID      = 2007-023A
CENTER_NAME    = EARTH
REF_FRAME      = TEME
TIME_SYSTEM    = UTC
MEAN_ELEMENT_THEORY = SGP/SGP4

EPOCH          = 2026-02-17T14:30:39.024576
MEAN_MOTION    = 14.96370427
ECCENTRICITY   = .00014058
INCLINATION    = 97.8856
RA_OF_ASC_NODE = 239.4780
ARG_OF_PERICENTER = 92.9883
MEAN_ANOMALY   = 267.1499

EPHEMERIS_TYPE = 0
CLASSIFICATION_TYPE = U
NORAD_CAT_ID   = 31598
ELEMENT_SET_NO = 999
REV_AT_EPOCH   = 1190
BSTAR          = .33209071E-3
MEAN_MOTION_DOT = .3701E-4
MEAN_MOTION_DDOT = 0

CCSDS_OMM_VERS = 2.0
CREATION_DATE  = 
ORIGINATOR     = 

OBJECT_NAME    = COSMOS 2428
OBJECT_ID      = 2007-029A
CENTER_NAME    = EARTH
REF_FRAME      = TEME
TIME_SYSTEM    = UTC
MEAN_ELEMENT_THEORY = SGP/SGP4

EPOCH          = 2026-02-17T13:41:29.402016
MEAN_MOTION    = 14.12938545
ECCENTRICITY   = .00079644
INCLINATION    = 70.9401
RA_OF_ASC_NODE = 245.5759
ARG_OF_PERICENTER = 300.0341
MEAN_ANOMALY   = 59.9989

EPHEMERIS_TYPE = 0
CLASSIFICATION_TYPE = U
NORAD_CAT_ID   = 31792
ELEMENT_SET_NO = 999
REV_AT_EPOCH   = 96125
BSTAR          = .14491267E-3
MEAN_MOTION_DOT = .222E-5
MEAN_MOTION_DDOT = 0

CCSDS_OMM_VERS = 2.0
CREATION_DATE  = 
ORIGINATOR     = 

OBJECT_NAME    = SL-16 R/B
OBJECT_ID      = 2007-029B
CENTER_NAME    = EARTH
REF_FRAME      = TEME
TIME_SYSTEM    = UTC
MEAN_ELEMENT_THEORY = SGP/SGP4

EPOCH          = 2026-02-17T13:21:31.521312
MEAN_MOTION    = 14.14836394
ECCENTRICITY   = .00023078
INCLINATION    = 70.9745
RA_OF_ASC_NODE = 214.7033
ARG_OF_PERICENTER = 282.3606
MEAN_ANOMALY   = 144.9658

EPHEMERIS_TYPE = 0
CLASSIFICATION_TYPE = U
NORAD_CAT_ID   = 31793
ELEMENT_SET_NO = 999
REV_AT_EPOCH   = 96252
BSTAR          = .22066876E-4
MEAN_MOTION_DOT = -.5E-7
MEAN_MOTION_DDOT = 0

CCSDS_OMM_VERS = 2.0
CREATION_DATE  = 
ORIGINATOR     = 

OBJECT_NAME    = KORONAS-FOTON
OBJECT_ID      = 2009-003A
CENTER_NAME    = EARTH
REF_FRAME      = TEME
TIME_SYSTEM    = UTC
MEAN_ELEMENT_THEORY = SGP/SGP4

EPOCH          = 2026-02-17T03:24:48.802464
MEAN_MOTION    = 15.42775101
ECCENTRICITY   = .00093652
INCLINATION    = 82.4312
RA_OF_ASC_NODE = 297.2308
ARG_OF_PERICENTER = 224.6639
MEAN_ANOMALY   = 135.3854

EPHEMERIS_TYPE = 0
CLASSIFICATION_TYPE = U
NORAD_CAT_ID   = 33504
ELEMENT_SET_NO = 999
REV_AT_EPOCH   = 94257
BSTAR          = .2949888E-3
MEAN_MOTION_DOT = .1296E-3
MEAN_MOTION_DDOT = 0

CCSDS_OMM_VERS = 2.0
CREATION_DATE  = 
ORIGINATOR     = 

OBJECT_NAME    = CZ-2C R/B
OBJECT_ID      = 2011-030B
CENTER_NAME    = EARTH
REF_FRAME      = TEME
TIME_SYSTEM    = UTC
MEAN_ELEMENT_THEORY = SGP/SGP4

EPOCH          = 2026-02-17T13:17:17.017152
MEAN_MOTION    = 14.81138772
ECCENTRICITY   = .00540304
INCLINATION    = 97.8511
RA_OF_ASC_NODE = 6.2265
ARG_OF_PERICENTER = 56.7426
MEAN_ANOMALY   = 34.3039

EPHEMERIS_TYPE = 0
CLASSIFICATION_TYPE = U
NORAD_CAT_ID   = 37731
ELEMENT_SET_NO = 999
REV_AT_EPOCH   = 78711
BSTAR          = .19210282E-3
MEAN_MOTION_DOT = .1476E-4
MEAN_MOTION_DDOT = 0

CCSDS_OMM_VERS = 2.0
CREATION_DATE  = 
ORIGINATOR     = 

OBJECT_NAME    = H-2A R/B
OBJECT_ID      = 2012-025E
CENTER_NAME    = EARTH
REF_FRAME      = TEME
TIME_SYSTEM    = UTC
MEAN_ELEMENT_THEORY = SGP/SGP4

EPOCH          = 2026-02-17T10:47:37.930848
MEAN_MOTION    = 14.94984776
ECCENTRICITY   = .00453398
INCLINATION    = 98.4698
RA_OF_ASC_NODE = 13.8846
ARG_OF_PERICENTER = 21.1786
MEAN_ANOMALY   = 339.1297

EPHEMERIS_TYPE = 0
CLASSIFICATION_TYPE = U
NORAD_CAT_ID   = 38341
ELEMENT_SET_NO = 999
REV_AT_EPOCH   = 74519
BSTAR          = .43659976E-3
MEAN_MOTION_DOT = .4802E-4
MEAN_MOTION_DDOT = 0

CCSDS_OMM_VERS = 2.0
CREATION_DATE  = 
ORIGINATOR     = 

OBJECT_NAME    = SHIJIAN-16 (SJ-16)
OBJECT_ID      = 2013-057A
CENTER_NAME    = EARTH
REF_FRAME      = TEME
TIME_SYSTEM    = UTC
MEAN_ELEMENT_THEORY = SGP/SGP4

EPOCH          = 2026-02-17T14:00:32.524992
MEAN_MOTION    = 14.92264011
ECCENTRICITY   = .00163688
INCLINATION    = 74.9698
RA_OF_ASC_NODE = 223.1475
ARG_OF_PERICENTER = 163.3347
MEAN_ANOMALY   = 196.8383

EPHEMERIS_TYPE = 0
CLASSIFICATION_TYPE = U
NORAD_CAT_ID   = 39358
ELEMENT_SET_NO = 999
REV_AT_EPOCH   = 66850
BSTAR          = .18450611E-3
MEAN_MOTION_DOT = .1859E-4
MEAN_MOTION_DDOT = 0

