ALOS (DAICHI)           
1 28931U 06002A   26048.48783721  .00001460  00000+0  25326-3 0  9992
2 28931  98.1186   4.5503 0001764  57.4401 302.6975 14.69740873 70518
H-2A R/B                
1 28932U 06002B   26048.34829913  .00009760  00000+0  49488-3 0  9998
2 28932  98.2372 193.6357 0052275 311.2531  48.4201 15.15986519 91355
RESURS-DK 1             
1 29228U 06021A   26048.10220831  .00002708  00000+0  16075-3 0  9997
2 29228  69.9331 290.2762 0003615 190.6791 169.4299 15.12622011 84410
CZ-4B R/B               
1 29507U 06046C   26048.55414713  .00004357  00000+0  22310-3 0  9998
2 29507  97.5631  93.5158 0032785 340.0590  19.9359 15.16681051 56992
CZ-2C R/B               
1 31114U 07010B   26048.29532612  .00000113  00000+0  70999-4 0  9990
2 31114  98.3971 162.5976 0058759 354.7088   5.3462 14.20238834976821
COSMO-SKYMED 1          
1 31598U 07023A   26048.60461834  .00003701  00000+0  33209-3 0  9990
2 31598  97.8856 239.4780 0001405  92.9883 267.1499 14.96370427 11905
COSMOS 2428             
1 31792U 07029A   26048.57047919  .00000222  00000+0  14491-3 0  9999
2 31792  70.9401 245.5759 0007964 300.0341  59.9989 14.12938545961253
SL-16 R/B               
1 31793U 07029B   26048.55661483 -.00000005  00000+0  22067-4 0  9995
2 31793  70.9745 214.7033 0002307 282.3606 144.9658 14.14836394962520
KORONAS-FOTON           
1 33504U 09003A   26048.14223151  .00012960  00000+0  29499-3 0  9999
2 33504  82.4312 297.2308 0009365 224.6639 135.3854 15.42775101942572
CZ-2C R/B               
1 37731U 11030B   26048.55366918  .00001476  00000+0  19210-3 0  9992
2 37731  97.8511   6.2265 0054030  56.7426  34.3039 14.81138772787115
H-2A R/B                
1 38341U 12025E   26048.44974457  .00004802  00000+0  43660-3 0  9998
2 38341  98.4698  13.8846 0045339  21.1786 339.1297 14.94984776745193
SHIJIAN-16 (SJ-16)      
1 39358U 13057A   26048.58370978  .00001859  00000+0  18451-3 0  9995
2 39358  74.9698 223.1475 0016368 163.3347 196.8383 14.92264011668501
